[{"OBJECT_NAME":"STARLINK-4745","OBJECT_ID":"2022-114AC","EPOCH":"2024-01-09T01:14:14.440992","MEAN_MOTION":15.08842785,"ECCENTRICITY":0.0001433,"INCLINATION":53.2164,"RA_OF_ASC_NODE":243.3243,"ARG_OF_PERICENTER":87.5263,"MEAN_ANOMALY":272.5894,"EPHEMERIS_TYPE":0,"CLASSIFICATION_TYPE":"U","NORAD_CAT_ID":53844,"ELEMENT_SET_NO":999,"REV_AT_EPOCH":7307,"BSTAR":2.3345e-6,"MEAN_MOTION_DOT":-2.51e-6,"MEAN_MOTION_DDOT":0},{"OBJECT_NAME":"STARLINK-4753","OBJECT_ID":"2022-114AD","EPOCH":"2024-01-08T22:19:23.234592","MEAN_MOTION":15.08844657,"ECCENTRICITY":0.0001718,"INCLINATION":53.2167,"RA_OF_ASC_NODE":244.0103,"ARG_OF_PERICENTER":107.9099,"MEAN_ANOMALY":252.2081,"EPHEMERIS_TYPE":0,"CLASSIFICATION_TYPE":"U","NORAD_CAT_ID":53845,"ELEMENT_SET_NO":999,"REV_AT_EPOCH":7305,"BSTAR":6.2324e-5,"MEAN_MOTION_DOT":7.04e-6,"MEAN_MOTION_DDOT":0},{"OBJECT_NAME":"STARLINK-4746","OBJECT_ID":"2022-114AE","EPOCH":"2024-01-09T01:03:37.889856","MEAN_MOTION":15.08845115,"ECCENTRICITY":0.0001505,"INCLINATION":53.2171,"RA_OF_ASC_NODE":243.2785,"ARG_OF_PERICENTER":87.8642,"MEAN_ANOMALY":272.2523,"EPHEMERIS_TYPE":0,"CLASSIFICATION_TYPE":"U","NORAD_CAT_ID":53846,"ELEMENT_SET_NO":999,"REV_AT_EPOCH":7307,"BSTAR":9.1691e-5,"MEAN_MOTION_DOT":1.172e-5,"MEAN_MOTION_DDOT":0},{"OBJECT_NAME":"STARLINK-4777","OBJECT_ID":"2022-114AF","EPOCH":"2024-01-09T01:19:32.667744","MEAN_MOTION":15.08845752,"ECCENTRICITY":0.0001527,"INCLINATION":53.2163,"RA_OF_ASC_NODE":243.3485,"ARG_OF_PERICENTER":102.2192,"MEAN_ANOMALY":257.8971,"EPHEMERIS_TYPE":0,"CLASSIFICATION_TYPE":"U","NORAD_CAT_ID":53847,"ELEMENT_SET_NO":999,"REV_AT_EPOCH":7307,"BSTAR":5.6961e-5,"MEAN_MOTION_DOT":6.19e-6,"MEAN_MOTION_DDOT":0},{"OBJECT_NAME":"STARLINK-4780","OBJECT_ID":"2022-114AG","EPOCH":"2024-01-08T21:42:15.069312","MEAN_MOTION":15.08843199,"ECCENTRICITY":0.0001423,"INCLINATION":53.2169,"RA_OF_ASC_NODE":243.8308,"ARG_OF_PERICENTER":85.2829,"MEAN_ANOMALY":274.8326,"EPHEMERIS_TYPE":0,"CLASSIFICATION_TYPE":"U","NORAD_CAT_ID":53848,"ELEMENT_SET_NO":999,"REV_AT_EPOCH":7359,"BSTAR":3.9808e-5,"MEAN_MOTION_DOT":3.46e-6,"MEAN_MOTION_DDOT":0},{"OBJECT_NAME":"STARLINK-4770","OBJECT_ID":"2022-114AH","EPOCH":"2024-01-08T21:58:09.919776","MEAN_MOTION":15.08848033,"ECCENTRICITY":0.0001481,"INCLINATION":53.2166,"RA_OF_ASC_NODE":243.8951,"ARG_OF_PERICENTER":97.364,"MEAN_ANOMALY":262.7521,"EPHEMERIS_TYPE":0,"CLASSIFICATION_TYPE":"U","NORAD_CAT_ID":53849,"ELEMENT_SET_NO":999,"REV_AT_EPOCH":7359,"BSTAR":1.3152e-5,"MEAN_MOTION_DOT":-7.9e-7,"MEAN_MOTION_DDOT":0},{"OBJECT_NAME":"STARLINK-4767","OBJECT_ID":"2022-114AJ","EPOCH":"2024-01-09T00:37:06.108096","MEAN_MOTION":15.08842787,"ECCENTRICITY":0.0001417,"INCLINATION":53.2161,"RA_OF_ASC_NODE":243.1664,"ARG_OF_PERICENTER":92.2358,"MEAN_ANOMALY":267.8796,"EPHEMERIS_TYPE":0,"CLASSIFICATION_TYPE":"U","NORAD_CAT_ID":53850,"ELEMENT_SET_NO":999,"REV_AT_EPOCH":7307,"BSTAR":8.0008e-5,"MEAN_MOTION_DOT":9.86e-6,"MEAN_MOTION_DDOT":0},{"OBJECT_NAME":"STARLINK-4755","OBJECT_ID":"2022-114AK","EPOCH":"2024-01-08T21:47:33.090432","MEAN_MOTION":15.08846749,"ECCENTRICITY":0.0001534,"INCLINATION":53.217,"RA_OF_ASC_NODE":243.8545,"ARG_OF_PERICENTER":92.3239,"MEAN_ANOMALY":267.7929,"EPHEMERIS_TYPE":0,"CLASSIFICATION_TYPE":"U","NORAD_CAT_ID":53851,"ELEMENT_SET_NO":999,"REV_AT_EPOCH":7359,"BSTAR":4.9111e-5,"MEAN_MOTION_DOT":4.94e-6,"MEAN_MOTION_DDOT":0},{"OBJECT_NAME":"STARLINK-4797","OBJECT_ID":"2022-114AL","EPOCH":"2024-01-08T22:06:47.434176","MEAN_MOTION":15.08841587,"ECCENTRICITY":0.000155,"INCLINATION":53.2163,"RA_OF_ASC_NODE":238.9496,"ARG_OF_PERICENTER":103.7261,"MEAN_ANOMALY":256.3903,"EPHEMERIS_TYPE":0,"CLASSIFICATION_TYPE":"U","NORAD_CAT_ID":53852,"ELEMENT_SET_NO":999,"REV_AT_EPOCH":7312,"BSTAR":7.3854e-5,"MEAN_MOTION_DOT":8.88e-6,"MEAN_MOTION_DDOT":0},{"OBJECT_NAME":"STARLINK-4794","OBJECT_ID":"2022-114AM","EPOCH":"2024-01-09T00:47:42.688608","MEAN_MOTION":15.08846646,"ECCENTRICITY":0.000138,"INCLINATION":53.2163,"RA_OF_ASC_NODE":243.2107,"ARG_OF_PERICENTER":84.5224,"MEAN_ANOMALY":275.5926,"EPHEMERIS_TYPE":0,"CLASSIFICATION_TYPE":"U","NORAD_CAT_ID":53853,"ELEMENT_SET_NO":999,"REV_AT_EPOCH":7307,"BSTAR":7.3973e-5,"MEAN_MOTION_DOT":8.9e-6,"MEAN_MOTION_DDOT":0},{"OBJECT_NAME":"STARLINK-4800","OBJECT_ID":"2022-114AN","EPOCH":"2024-01-08T21:11:51.974016","MEAN_MOTION":15.08843004,"ECCENTRICITY":0.0001565,"INCLINATION":53.2166,"RA_OF_ASC_NODE":234.4234,"ARG_OF_PERICENTER":88.7827,"MEAN_ANOMALY":271.3344,"EPHEMERIS_TYPE":0,"CLASSIFICATION_TYPE":"U","NORAD_CAT_ID":53854,"ELEMENT_SET_NO":999,"REV_AT_EPOCH":7318,"BSTAR":2.4852e-5,"MEAN_MOTION_DOT":1.08e-6,"MEAN_MOTION_DDOT":0},{"OBJECT_NAME":"STARLINK-4703","OBJECT_ID":"2022-114AP","EPOCH":"2024-01-09T00:54:24.589440","MEAN_MOTION":15.08820217,"ECCENTRICITY":0.0001664,"INCLINATION":53.2181,"RA_OF_ASC_NODE":243.234,"ARG_OF_PERICENTER":83.5899,"MEAN_ANOMALY":276.5282,"EPHEMERIS_TYPE":0,"CLASSIFICATION_TYPE":"U","NORAD_CAT_ID":53855,"ELEMENT_SET_NO":999,"REV_AT_EPOCH":7307,"BSTAR":0.00040456,"MEAN_MOTION_DOT":6.153e-5,"MEAN_MOTION_DDOT":0},{"OBJECT_NAME":"STARLINK-4795","OBJECT_ID":"2022-114AQ","EPOCH":"2024-01-09T00:01:24.584736","MEAN_MOTION":15.08848444,"ECCENTRICITY":0.0001756,"INCLINATION":53.2159,"RA_OF_ASC_NODE":233.7364,"ARG_OF_PERICENTER":101.8031,"MEAN_ANOMALY":258.3158,"EPHEMERIS_TYPE":0,"CLASSIFICATION_TYPE":"U","NORAD_CAT_ID":53856,"ELEMENT_SET_NO":999,"REV_AT_EPOCH":7320,"BSTAR":3.4625e-5,"MEAN_MOTION_DOT":2.63e-6,"MEAN_MOTION_DDOT":0},{"OBJECT_NAME":"STARLINK-4809","OBJECT_ID":"2022-114AR","EPOCH":"2024-01-08T21:21:01.478880","MEAN_MOTION":15.08842808,"ECCENTRICITY":0.000175,"INCLINATION":53.2167,"RA_OF_ASC_NODE":243.74,"ARG_OF_PERICENTER":105.8827,"MEAN_ANOMALY":254.2358,"EPHEMERIS_TYPE":0,"CLASSIFICATION_TYPE":"U","NORAD_CAT_ID":53857,"ELEMENT_SET_NO":999,"REV_AT_EPOCH":7359,"BSTAR":-0.00014068,"MEAN_MOTION_DOT":-2.527e-5,"MEAN_MOTION_DDOT":0},{"OBJECT_NAME":"STARLINK-4798","OBJECT_ID":"2022-114AS","EPOCH":"2024-01-08T22:41:57.038784","MEAN_MOTION":15.08844772,"ECCENTRICITY":0.0001437,"INCLINATION":53.2158,"RA_OF_ASC_NODE":234.105,"ARG_OF_PERICENTER":87.107,"MEAN_ANOMALY":273.0086,"EPHEMERIS_TYPE":0,"CLASSIFICATION_TYPE":"U","NORAD_CAT_ID":53858,"ELEMENT_SET_NO":999,"REV_AT_EPOCH":7373,"BSTAR":-2.0991e-5,"MEAN_MOTION_DOT":-6.22e-6,"MEAN_MOTION_DDOT":0},{"OBJECT_NAME":"STARLINK-4790","OBJECT_ID":"2022-114AT","EPOCH":"2024-01-09T00:40:25.303296","MEAN_MOTION":15.08843928,"ECCENTRICITY":0.0001649,"INCLINATION":53.2178,"RA_OF_ASC_NODE":238.1898,"ARG_OF_PERICENTER":75.8765,"MEAN_ANOMALY":284.241,"EPHEMERIS_TYPE":0,"CLASSIFICATION_TYPE":"U","NORAD_CAT_ID":53859,"ELEMENT_SET_NO":999,"REV_AT_EPOCH":7314,"BSTAR":7.4354e-5,"MEAN_MOTION_DOT":8.96e-6,"MEAN_MOTION_DDOT":0},{"OBJECT_NAME":"STARLINK-4799","OBJECT_ID":"2022-114AU","EPOCH":"2024-01-08T22:31:20.017632","MEAN_MOTION":15.08841358,"ECCENTRICITY":0.0001618,"INCLINATION":53.2162,"RA_OF_ASC_NODE":234.0566,"ARG_OF_PERICENTER":98.7599,"MEAN_ANOMALY":261.3576,"EPHEMERIS_TYPE":0,"CLASSIFICATION_TYPE":"U","NORAD_CAT_ID":53860,"ELEMENT_SET_NO":999,"REV_AT_EPOCH":7349,"BSTAR":5.0199e-5,"MEAN_MOTION_DOT":5.11e-6,"MEAN_MOTION_DDOT":0},{"OBJECT_NAME":"STARLINK-4781","OBJECT_ID":"2022-114AV","EPOCH":"2024-01-09T00:12:01.961856","MEAN_MOTION":15.0884374,"ECCENTRICITY":0.0001524,"INCLINATION":53.2163,"RA_OF_ASC_NODE":233.7844,"ARG_OF_PERICENTER":69.6497,"MEAN_ANOMALY":290.4659,"EPHEMERIS_TYPE":0,"CLASSIFICATION_TYPE":"U","NORAD_CAT_ID":53861,"ELEMENT_SET_NO":999,"REV_AT_EPOCH":7320,"BSTAR":0.0001232,"MEAN_MOTION_DOT":1.673e-5,"MEAN_MOTION_DDOT":0},{"OBJECT_NAME":"STARLINK-4792","OBJECT_ID":"2022-114AW","EPOCH":"2024-01-09T01:10:16.142880","MEAN_MOTION":15.08838704,"ECCENTRICITY":0.0001575,"INCLINATION":53.2156,"RA_OF_ASC_NODE":233.3284,"ARG_OF_PERICENTER":96.9933,"MEAN_ANOMALY":263.1239,"EPHEMERIS_TYPE":0,"CLASSIFICATION_TYPE":"U","NORAD_CAT_ID":53862,"ELEMENT_SET_NO":999,"REV_AT_EPOCH":7321,"BSTAR":1.9863e-5,"MEAN_MOTION_DOT":2.8e-7,"MEAN_MOTION_DDOT":0},{"OBJECT_NAME":"STARLINK-4788","OBJECT_ID":"2022-114AX","EPOCH":"2024-01-08T22:20:43.350720","MEAN_MOTION":15.08839337,"ECCENTRICITY":0.0001419,"INCLINATION":53.2146,"RA_OF_ASC_NODE":234.015,"ARG_OF_PERICENTER":103.8776,"MEAN_ANOMALY":256.2374,"EPHEMERIS_TYPE":0,"CLASSIFICATION_TYPE":"U","NORAD_CAT_ID":53863,"ELEMENT_SET_NO":999,"REV_AT_EPOCH":7373,"BSTAR":9.1784e-5,"MEAN_MOTION_DOT":1.173e-5,"MEAN_MOTION_DDOT":0},{"OBJECT_NAME":"STARLINK-4779","OBJECT_ID":"2022-114AY","EPOCH":"2024-01-09T00:27:49.034592","MEAN_MOTION":15.08845452,"ECCENTRICITY":0.0001616,"INCLINATION":53.2163,"RA_OF_ASC_NODE":233.1444,"ARG_OF_PERICENTER":78.1684,"MEAN_ANOMALY":281.949,"EPHEMERIS_TYPE":0,"CLASSIFICATION_TYPE":"U","NORAD_CAT_ID":53864,"ELEMENT_SET_NO":999,"REV_AT_EPOCH":7321,"BSTAR":9.2813e-5,"MEAN_MOTION_DOT":1.19e-5,"MEAN_MOTION_DDOT":0},{"OBJECT_NAME":"STARLINK-4785","OBJECT_ID":"2022-114AZ","EPOCH":"2024-01-08T21:48:52.877376","MEAN_MOTION":15.08845486,"ECCENTRICITY":0.0001496,"INCLINATION":53.2152,"RA_OF_ASC_NODE":233.8737,"ARG_OF_PERICENTER":94.7627,"MEAN_ANOMALY":265.3536,"EPHEMERIS_TYPE":0,"CLASSIFICATION_TYPE":"U","NORAD_CAT_ID":53865,"ELEMENT_SET_NO":999,"REV_AT_EPOCH":7319,"BSTAR":0.00016584,"MEAN_MOTION_DOT":2.353e-5,"MEAN_MOTION_DDOT":0},{"OBJECT_NAME":"STARLINK-4762","OBJECT_ID":"2022-114BA","EPOCH":"2024-01-09T00:14:41.461440","MEAN_MOTION":15.08840836,"ECCENTRICITY":0.0001379,"INCLINATION":53.2163,"RA_OF_ASC_NODE":213.8265,"ARG_OF_PERICENTER":95.4564,"MEAN_ANOMALY":264.6586,"EPHEMERIS_TYPE":0,"CLASSIFICATION_TYPE":"U","NORAD_CAT_ID":53866,"ELEMENT_SET_NO":999,"REV_AT_EPOCH":7348,"BSTAR":-9.516e-5,"MEAN_MOTION_DOT":-1.802e-5,"MEAN_MOTION_DDOT":0}]
